start=new Date('2022-09-18T00:00:00.000Z').valueOf();
sats=[{"REF_FRAME":"TEME","TLE_LINE1":"1 53704U 22107E   22260.91667824  .00039855  00000-0  28715-3 0  9992","OBJECT_ID":"2022-107E","ECCENTRICITY":"0.00012560","ARG_OF_PERICENTER":"114.6172","OBJECT_NAME":"STARLINK-4714","MEAN_MOTION_DOT":"0.00039855","OBJECT_TYPE":"PAYLOAD","ELEMENT_SET_NO":"999","BSTAR":"0.00028715000000","RA_OF_ASC_NODE":"209.6561","NORAD_CAT_ID":"53704","CENTER_NAME":"EARTH","PERIOD":"91.534","EPHEMERIS_TYPE":"0","TIME_SYSTEM":"UTC","MEAN_ELEMENT_THEORY":"SGP4","FILE":"3576621","CLASSIFICATION_TYPE":"U","SEMIMAJOR_AXIS":"6727.921","APOAPSIS":"350.631","GP_ID":"212873533","MEAN_MOTION":"15.73190954","REV_AT_EPOCH":"130","LAUNCH_DATE":"2022-09-05","MEAN_MOTION_DDOT":"0.0000000000000","COUNTRY_CODE":"US","PERIAPSIS":"348.941","SITE":"AFETR","DECAY_DATE":null,"TLE_LINE2":"2 53704  53.2144 209.6561 0001256 114.6172 240.0406 15.73190954  1309","EPOCH":"2022-09-17T22:00:00.999936","MEAN_ANOMALY":"240.0406","INCLINATION":"53.2144","RCS_SIZE":"LARGE"},{"RCS_SIZE":"LARGE","EPOCH":"2022-09-17T22:00:00.999936","INCLINATION":"53.2142","MEAN_ANOMALY":"234.9181","TLE_LINE2":"2 53705  53.2142 209.6546 0001167 120.4193 234.9181 15.73209595  1304","COUNTRY_CODE":"US","PERIAPSIS":"348.948","SITE":"AFETR","DECAY_DATE":null,"MEAN_MOTION_DDOT":"0.0000000000000","LAUNCH_DATE":"2022-09-05","REV_AT_EPOCH":"130","GP_ID":"212872470","MEAN_MOTION":"15.73209595","APOAPSIS":"350.518","CLASSIFICATION_TYPE":"U","SEMIMAJOR_AXIS":"6727.868","TIME_SYSTEM":"UTC","FILE":"3576621","MEAN_ELEMENT_THEORY":"SGP4","PERIOD":"91.533","EPHEMERIS_TYPE":"0","RA_OF_ASC_NODE":"209.6546","NORAD_CAT_ID":"53705","CENTER_NAME":"EARTH","OBJECT_TYPE":"PAYLOAD","BSTAR":"0.00029338000000","ELEMENT_SET_NO":"999","ARG_OF_PERICENTER":"120.4193","OBJECT_NAME":"STARLINK-4717","MEAN_MOTION_DOT":"0.00040771","ECCENTRICITY":"0.00011670","REF_FRAME":"TEME","TLE_LINE1":"1 53705U 22107F   22260.91667824  .00040771  00000-0  29338-3 0  9994","OBJECT_ID":"2022-107F"},{"OBJECT_ID":"2022-107G","TLE_LINE1":"1 53706U 22107G   22260.91667824 -.00083907  00000-0 -59726-3 0  9999","REF_FRAME":"TEME","ECCENTRICITY":"0.00012940","MEAN_MOTION_DOT":"-0.00083907","OBJECT_NAME":"STARLINK-4716","ARG_OF_PERICENTER":"112.8357","ELEMENT_SET_NO":"999","BSTAR":"-0.00059726000000","OBJECT_TYPE":"PAYLOAD","CENTER_NAME":"EARTH","NORAD_CAT_ID":"53706","RA_OF_ASC_NODE":"209.6534","EPHEMERIS_TYPE":"0","PERIOD":"91.528","FILE":"3576621","MEAN_ELEMENT_THEORY":"SGP4","TIME_SYSTEM":"UTC","SEMIMAJOR_AXIS":"6727.659","CLASSIFICATION_TYPE":"U","APOAPSIS":"350.394","MEAN_MOTION":"15.73282996","GP_ID":"212873407","MEAN_MOTION_DDOT":"0.0000000000000","LAUNCH_DATE":"2022-09-05","REV_AT_EPOCH":"130","DECAY_DATE":null,"SITE":"AFETR","PERIAPSIS":"348.653","COUNTRY_CODE":"US","TLE_LINE2":"2 53706  53.2143 209.6534 0001294 112.8357 243.0798 15.73282996  1302","MEAN_ANOMALY":"243.0798","INCLINATION":"53.2143","EPOCH":"2022-09-17T22:00:00.999936","RCS_SIZE":"LARGE"},{"TLE_LINE2":"2 53707  53.2143 209.6450 0001157 116.4506 243.5981 15.73200452  1311","SITE":"AFETR","DECAY_DATE":null,"PERIAPSIS":"348.980","COUNTRY_CODE":"US","RCS_SIZE":"LARGE","MEAN_ANOMALY":"243.5981","INCLINATION":"53.2143","EPOCH":"2022-09-17T22:00:00.999936","APOAPSIS":"350.537","SEMIMAJOR_AXIS":"6727.894","CLASSIFICATION_TYPE":"U","LAUNCH_DATE":"2022-09-05","MEAN_MOTION_DDOT":"0.0000000000000","REV_AT_EPOCH":"131","MEAN_MOTION":"15.73200452","GP_ID":"212873040","CENTER_NAME":"EARTH","NORAD_CAT_ID":"53707","RA_OF_ASC_NODE":"209.6450","BSTAR":"0.00028355000000","ELEMENT_SET_NO":"999","OBJECT_TYPE":"PAYLOAD","MEAN_ELEMENT_THEORY":"SGP4","FILE":"3576621","TIME_SYSTEM":"UTC","EPHEMERIS_TYPE":"0","PERIOD":"91.533","ECCENTRICITY":"0.00011570","OBJECT_ID":"2022-107H","TLE_LINE1":"1 53707U 22107H   22260.91667824  .00039362  00000-0  28355-3 0  9998","REF_FRAME":"TEME","MEAN_MOTION_DOT":"0.00039362","ARG_OF_PERICENTER":"116.4506","OBJECT_NAME":"STARLINK-4667"},{"MEAN_MOTION_DOT":"-0.00088738","OBJECT_NAME":"STARLINK-4694","ARG_OF_PERICENTER":"107.7596","OBJECT_ID":"2022-107J","TLE_LINE1":"1 53708U 22107J   22260.91667824 -.00088738  00000-0 -63219-3 0  9990","REF_FRAME":"TEME","ECCENTRICITY":"0.00012580","EPHEMERIS_TYPE":"0","PERIOD":"91.528","MEAN_ELEMENT_THEORY":"SGP4","FILE":"3576621","TIME_SYSTEM":"UTC","ELEMENT_SET_NO":"999","BSTAR":"-0.00063219000000","OBJECT_TYPE":"PAYLOAD","CENTER_NAME":"EARTH","NORAD_CAT_ID":"53708","RA_OF_ASC_NODE":"209.6488","MEAN_MOTION":"15.73286021","GP_ID":"212873324","REV_AT_EPOCH":"130","LAUNCH_DATE":"2022-09-05","MEAN_MOTION_DDOT":"0.0000000000000","SEMIMAJOR_AXIS":"6727.650","CLASSIFICATION_TYPE":"U","APOAPSIS":"350.361","MEAN_ANOMALY":"250.5125","INCLINATION":"53.2141","EPOCH":"2022-09-17T22:00:00.999936","RCS_SIZE":"LARGE","SITE":"AFETR","DECAY_DATE":null,"PERIAPSIS":"348.669","COUNTRY_CODE":"US","TLE_LINE2":"2 53708  53.2141 209.6488 0001258 107.7596 250.5125 15.73286021  1308"},{"FILE":"3576621","MEAN_ELEMENT_THEORY":"SGP4","TIME_SYSTEM":"UTC","EPHEMERIS_TYPE":"0","PERIOD":"91.531","CENTER_NAME":"EARTH","NORAD_CAT_ID":"53709","RA_OF_ASC_NODE":"209.6597","ELEMENT_SET_NO":"999","BSTAR":"-0.00046293000000","OBJECT_TYPE":"PAYLOAD","MEAN_MOTION_DOT":"-0.00065197","OBJECT_NAME":"STARLINK-4685","ARG_OF_PERICENTER":"116.2107","ECCENTRICITY":"0.00014710","OBJECT_ID":"2022-107K","TLE_LINE1":"1 53709U 22107K   22260.91667824 -.00065197  00000-0 -46293-3 0  9998","REF_FRAME":"TEME","RCS_SIZE":"LARGE","INCLINATION":"53.2142","MEAN_ANOMALY":"236.7850","EPOCH":"2022-09-17T22:00:00.999936","TLE_LINE2":"2 53709  53.2142 209.6597 0001471 116.2107 236.7850 15.73238837  1304","DECAY_DATE":null,"SITE":"AFETR","PERIAPSIS":"348.660","COUNTRY_CODE":"US","REV_AT_EPOCH":"130","LAUNCH_DATE":"2022-09-05","MEAN_MOTION_DDOT":"0.0000000000000","MEAN_MOTION":"15.73238837","GP_ID":"212872886","APOAPSIS":"350.639","SEMIMAJOR_AXIS":"6727.784","CLASSIFICATION_TYPE":"U"},{"RCS_SIZE":"MEDIUM","EPOCH":"2022-09-17T22:00:00.999936","MEAN_ANOMALY":"59.9186","INCLINATION":"53.2126","TLE_LINE2":"2 53710  53.2126 208.8725 0007472 316.1062  59.9186 15.91579034  1304","COUNTRY_CODE":"US","SITE":"AFETR","DECAY_DATE":null,"PERIAPSIS":"292.877","LAUNCH_DATE":"2022-09-05","MEAN_MOTION_DDOT":"0.0000191010000","REV_AT_EPOCH":"130","GP_ID":"212873197","MEAN_MOTION":"15.91579034","APOAPSIS":"302.854","SEMIMAJOR_AXIS":"6676.001","CLASSIFICATION_TYPE":"U","MEAN_ELEMENT_THEORY":"SGP4","FILE":"3576621","TIME_SYSTEM":"UTC","PERIOD":"90.476","EPHEMERIS_TYPE":"0","RA_OF_ASC_NODE":"208.8725","CENTER_NAME":"EARTH","NORAD_CAT_ID":"53710","OBJECT_TYPE":"PAYLOAD","BSTAR":"0.00045071000000","ELEMENT_SET_NO":"999","ARG_OF_PERICENTER":"316.1062","OBJECT_NAME":"STARLINK-4696","MEAN_MOTION_DOT":"0.00146866","ECCENTRICITY":"0.00074720","TLE_LINE1":"1 53710U 22107L   22260.91667824  .00146866  19101-4  45071-3 0  9990","REF_FRAME":"TEME","OBJECT_ID":"2022-107L"},{"SEMIMAJOR_AXIS":"6727.804","CLASSIFICATION_TYPE":"U","APOAPSIS":"350.408","GP_ID":"212872624","MEAN_MOTION":"15.73231954","LAUNCH_DATE":"2022-09-05","MEAN_MOTION_DDOT":"0.0000000000000","REV_AT_EPOCH":"130","COUNTRY_CODE":"US","SITE":"AFETR","DECAY_DATE":null,"PERIAPSIS":"348.930","TLE_LINE2":"2 53711  53.2142 209.6609 0001098 117.9492 234.4273 15.73231954  1308","EPOCH":"2022-09-17T22:00:00.999936","INCLINATION":"53.2142","MEAN_ANOMALY":"234.4273","RCS_SIZE":"LARGE","TLE_LINE1":"1 53711U 22107M   22260.91667824  .00009437  00000-0  71484-4 0  9995","REF_FRAME":"TEME","OBJECT_ID":"2022-107M","ECCENTRICITY":"0.00010980","ARG_OF_PERICENTER":"117.9492","OBJECT_NAME":"STARLINK-4627","MEAN_MOTION_DOT":"0.00009437","OBJECT_TYPE":"PAYLOAD","ELEMENT_SET_NO":"999","BSTAR":"0.00007148400000","RA_OF_ASC_NODE":"209.6609","CENTER_NAME":"EARTH","NORAD_CAT_ID":"53711","PERIOD":"91.531","EPHEMERIS_TYPE":"0","FILE":"3576621","MEAN_ELEMENT_THEORY":"SGP4","TIME_SYSTEM":"UTC"},{"TLE_LINE2":"2 53712  53.2143 209.6584 0001212 121.0620 232.5096 15.73206603  1304","PERIAPSIS":"348.926","DECAY_DATE":null,"SITE":"AFETR","COUNTRY_CODE":"US","RCS_SIZE":"LARGE","MEAN_ANOMALY":"232.5096","INCLINATION":"53.2143","EPOCH":"2022-09-17T22:00:00.999936","APOAPSIS":"350.557","CLASSIFICATION_TYPE":"U","SEMIMAJOR_AXIS":"6727.876","REV_AT_EPOCH":"130","LAUNCH_DATE":"2022-09-05","MEAN_MOTION_DDOT":"0.0000000000000","MEAN_MOTION":"15.73206603","GP_ID":"212873534","NORAD_CAT_ID":"53712","CENTER_NAME":"EARTH","RA_OF_ASC_NODE":"209.6584","ELEMENT_SET_NO":"999","BSTAR":"0.00029328000000","OBJECT_TYPE":"PAYLOAD","TIME_SYSTEM":"UTC","FILE":"3576621","MEAN_ELEMENT_THEORY":"SGP4","EPHEMERIS_TYPE":"0","PERIOD":"91.533","ECCENTRICITY":"0.00012120","OBJECT_ID":"2022-107N","REF_FRAME":"TEME","TLE_LINE1":"1 53712U 22107N   22260.91667824  .00040751  00000-0  29328-3 0  9999","MEAN_MOTION_DOT":"0.00040751","OBJECT_NAME":"STARLINK-4683","ARG_OF_PERICENTER":"121.0620"},{"LAUNCH_DATE":"2022-09-05","MEAN_MOTION_DDOT":"0.0000000000000","REV_AT_EPOCH":"130","GP_ID":"212872471","MEAN_MOTION":"15.73265351","APOAPSIS":"350.442","SEMIMAJOR_AXIS":"6727.709","CLASSIFICATION_TYPE":"U","RCS_SIZE":"LARGE","EPOCH":"2022-09-17T22:00:00.999936","INCLINATION":"53.2141","MEAN_ANOMALY":"234.4538","TLE_LINE2":"2 53713  53.2141 209.6635 0001291 116.7085 234.4538 15.73265351  1300","COUNTRY_CODE":"US","SITE":"AFETR","DECAY_DATE":null,"PERIAPSIS":"348.705","ARG_OF_PERICENTER":"116.7085","OBJECT_NAME":"STARLINK-4698","MEAN_MOTION_DOT":"-0.00053162","ECCENTRICITY":"0.00012910","TLE_LINE1":"1 53713U 22107P   22260.91667824 -.00053162  00000-0 -37570-3 0  9990","REF_FRAME":"TEME","OBJECT_ID":"2022-107P","MEAN_ELEMENT_THEORY":"SGP4","FILE":"3576621","TIME_SYSTEM":"UTC","PERIOD":"91.529","EPHEMERIS_TYPE":"0","RA_OF_ASC_NODE":"209.6635","CENTER_NAME":"EARTH","NORAD_CAT_ID":"53713","OBJECT_TYPE":"PAYLOAD","BSTAR":"-0.00037570000000","ELEMENT_SET_NO":"999"}];
